{
  "type": "FeatureCollection",
  "features": [
    {
      "type": "Feature",
      "properties": {
        "name": "Kotdih Colliery Mine Lease Boundary (DEMO)",
        "source": "demo"
      },
      "geometry": {
        "type": "Polygon",
        "coordinates": [
          [
            [
              86.4025,
              23.7505
            ],
            [
              86.4098,
              23.7522
            ],
            [
              86.4175,
              23.7508
            ],
            [
              86.4215,
              23.7462
            ],
            [
              86.4198,
              23.7398
            ],
            [
              86.4142,
              23.7362
            ],
            [
              86.4068,
              23.7368
            ],
            [
              86.4012,
              23.7412
            ],
            [
              86.3998,
              23.7468
            ],
            [
              86.4025,
              23.7505
            ]
          ]
        ]
      }
    }
  ]
}