{
  "type": "FeatureCollection",
  "features": [
    {
      "type": "Feature",
      "properties": {
        "name": "Open Pit (DEMO)",
        "source": "demo"
      },
      "geometry": {
        "type": "Polygon",
        "coordinates": [
          [
            [
              86.407,
              23.746
            ],
            [
              86.4105,
              23.7472
            ],
            [
              86.4145,
              23.7458
            ],
            [
              86.4158,
              23.742
            ],
            [
              86.4132,
              23.7385
            ],
            [
              86.409,
              23.738
            ],
            [
              86.4062,
              23.7405
            ],
            [
              86.4055,
              23.7438
            ],
            [
              86.407,
              23.746
            ]
          ]
        ]
      }
    }
  ]
}